#aV2024 12 18  0  0  0.00000000     288 DD+AD WGS84 FIT  NGA
## 2345 259200.00000000   300.00000000 60662 0.0000000000000
+   31     2  3  4  5  6  7  8  9 10 11 12 13 14 15 16 17 18
+         19 20 21 22 23 24 25 26 27 28 29 30 31 32  0  0  0
+          0  0  0  0  0  0  0  0  0  0  0  0  0  0  0  0  0
+          0  0  0  0  0  0  0  0  0  0  0  0  0  0  0  0  0
+          0  0  0  0  0  0  0  0  0  0  0  0  0  0  0  0  0
++         2  2  2  2  2  2  2  2  2  2  2  2  2  2  2  2  2
++         2  2  2  2  2  2  2  2  2  2  2  2  2  2  0  0  0
++         0  0  0  0  0  0  0  0  0  0  0  0  0  0  0  0  0
++         0  0  0  0  0  0  0  0  0  0  0  0  0  0  0  0  0
++         0  0  0  0  0  0  0  0  0  0  0  0  0  0  0  0  0
%c cc cc ccc ccc cccc cccc cccc cccc ccccc ccccc ccccc ccccc
%c cc cc ccc ccc cccc cccc cccc cccc ccccc ccccc ccccc ccccc
%f  0.0000000  0.000000000  0.00000000000  0.000000000000000
%f  0.0000000  0.000000000  0.00000000000  0.000000000000000
%i    0    0    0    0      0      0      0      0         0
%i    0    0    0    0      0      0      0      0         0
/*      NGA, ST. LOUIS,MO.                                  
/*   EPHEMERIS COMPUTED FROM 2 DAYS OF DATA                 
/*   EPOCHA v9 SMOOTHER                                     
/*   G2296 IERS2010 SATIGS SATAPC                           
*  2024 12 18  6  0  0.00000000
P  2   5757.139234  13969.859125 -21403.029392   -289.362666                    
V  2 -27751.203299   5292.030770  -3557.942492      0.088930                    
P  3  11927.373316  23196.685258  -5480.379588    627.073891                    
V  3  -5326.810707  -4451.559168 -31266.614057      0.086913                    
P  4   2974.983718  20207.908624  16911.009190    497.681102                    
V  4 -11148.895753  18451.899913 -20255.120298      0.061446                    
P  5   -444.416978 -19769.401886  17525.523272   -196.347074                    
V  5  15184.383564  16797.488646  19203.878709     -0.011373                    
P  6  25370.304141  -5784.417305   5712.382821    -52.647715                    
V  6   7229.013588   1172.596765 -31204.392842     -0.284987                    
P  7  21238.664324   8346.859339  14492.920370    -15.246925                    
V  7 -17078.167321   3588.116199  23405.347733      0.011986                    
P  8  -4536.522588  24912.923307  -7322.903225    441.076221                    
V  8  -6572.550133   7318.675658  29925.238518      0.088548                    
P  9  10334.790854  12796.049345  20747.683488    491.804779                    
V  9 -11179.253877  24122.556813  -9333.082242      0.160320                    
P 10 -17612.649131  -2457.999957 -19610.977058   -239.048195                    
V 10 -13943.057648 -21039.417469  14658.154709     -0.154706                    
P 11  16920.448190 -12230.743727  16421.542288   -752.687986                    
V 11  20853.864512    726.546841 -21055.696413     -0.001829                    
P 12  -7772.083931 -24040.663310  -8558.281604   -559.050213                    
V 12   7598.282087   7604.111949 -29200.035842     -0.023312                    
P 13  13464.597813 -22714.146144  -1348.470559    690.368123                    
V 13   2991.230518    208.005570  32119.306742      0.013896                    
P 14  19275.686391   5985.834496 -17336.765321    562.412835                    
V 14  10913.117931  19265.200690  18499.980711      0.075844                    
P 15    829.524769 -25375.079218  -8064.601446    240.927110                    
V 15   5735.394353  -8400.406475  29046.544751      0.045408                    
P 16  -6274.278442  16256.681748  19555.465303   -100.439974                    
V 16 -14381.468532 -21407.905854  13391.254837      0.095729                    
P 17  17334.399411  -4214.729591 -19331.008987    514.303446                    
V 17 -10801.237671  22976.685047 -14195.002144     -0.161675                    
P 18 -22877.696939  -6462.471720  12110.267520   -660.146254                    
V 18  15031.700307  -3015.114984  26636.673733      0.005601                    
P 19  18554.768635 -13046.669523 -13591.101375    575.205881                    
V 19  -6661.143583  16021.215018 -25152.198990      0.042835                    
P 20   9581.822931 -12054.005753  21730.321227    367.801060                    
V 20  19735.079980  19009.663045   1715.726367     -0.003145                    
P 21  -1016.945882  15284.806619 -21189.186947     96.771310                    
V 21 -27652.980270   4343.307845   5458.657120      0.024052                    
P 22  15732.432158  -2052.274750 -20863.082600    -87.058126                    
V 22  13138.847348  24125.898055   7699.789874     -0.024062                    
P 23 -19658.435509 -14977.006781  -9993.603417    385.805240                    
V 23  -6230.781091 -11143.192817  28611.790987      0.076950                    
P 24  -3624.604577 -15614.276893 -21649.670867   -472.522445                    
V 24  26014.930455  -5080.679538   -302.970924      0.031926                    
P 25 -17480.034350 -19914.500329   2958.116858    497.967671                    
V 25   -112.020142  -5110.906634 -31029.033138     -0.004436                    
P 26 -14367.199676   7271.763264  20978.542190    -13.086996                    
V 26 -17338.965039 -20880.986126  -4208.917496     -0.142156                    
P 27 -12452.088000  22955.051164   2998.429979    -34.078933                    
V 27  -1251.984301  -5176.703456  31704.445125      0.003527                    
P 28 -25739.463386   5651.625031   3326.113108   -511.302640                    
V 28  -4561.394256  -2219.124282 -31381.957047     -0.106121                    
P 29  -9191.903804 -13280.875385  21018.471079   -554.977118                    
V 29  13555.555001 -23120.422565  -8782.439473      0.032170                    
P 30  26478.715164     53.460115   3638.376024   -258.892826                    
V 30  -4067.211000   3755.653233  30549.625372      0.081547                    
P 31 -21219.996339  10330.334745  12288.652095   -219.751208                    
V 31 -16003.097569  -1120.699409 -25806.300194      0.007391                    
P 32 -17356.868619   8539.385262 -17884.488150   -557.199216                    
V 32   7825.568397 -21941.626054 -18048.018879      0.061743                    
EOF
